satname,norad_id,inclination_deg,eccentricity,mean_motion_rev_per_day,perigee_km,apogee_km,l1,l2
STARLINK-1465,45731,53.0519,0.0001722,15.06409193,545.9908426906695,548.3759230305259,1 45731U 20038B   25296.57603053  .00004976  00000+0  35265-3 0  9995,2 45731  53.0519 132.1443 0001722  83.4185 276.7000 15.06409193295527
STARLINK-1471,45735,53.0515,0.000218,15.40484056,443.1923108849787,446.16705895960513,1 45735U 20038F   25296.76947322  .00026002  00000+0  63936-3 0  9990,2 45735  53.0515  73.4311 0002180 137.1645 222.9529 15.40484056296377
STARLINK-1474,45738,53.0397,0.0003169,15.65498032,369.66774920834996,373.94586359284676,1 45738U 20038J   25296.54982850  .00079722  00000+0  77884-3 0  9998,2 45738  53.0397  33.2742 0003169 286.2578  73.8088 15.65498032296918
STARLINK-1475,45739,53.0505,0.0005335,15.73153544,346.30122231180576,353.480027787733,1 45739U 20038K   25296.66671295  .00134669  00000+0  94978-3 0  9995,2 45739  53.0505 359.7071 0005335 325.9971  85.9921 15.73153544  5919
STARLINK-1480,45741,53.0515,0.0001427,15.06397334,546.2314804511461,548.2079772615616,1 45741U 20038M   25296.29222189  .00004675  00000+0  33257-3 0  9997,2 45741  53.0515 133.4201 0001427  86.0271 274.0881 15.06397334295494
STARLINK-1500,45744,53.0362,0.000422,15.27070014,481.68053742564734,487.47266770621263,1 45744U 20038Q   25296.51517738  .00023900  00000+0  89801-3 0  9990,2 45744  53.0362 112.3960 0004220 161.7710 198.3440 15.27070014295808
STARLINK-1504,45746,53.0298,0.000395,15.39446504,445.04873301033604,450.4411797558787,1 45746U 20038S   25296.65260774  .00068686  00000+0  17210-2 0  9996,2 45746  53.0298  77.0732 0003950 168.8052 191.3039 15.39446504296305
STARLINK-1506,45747,53.0527,0.0003312,15.21057043,500.3720274811494,504.9298614155523,1 45747U 20038T   25296.24227679  .00010988  00000+0  50221-3 0  9991,2 45747  53.0527 115.7934 0003312 178.5070 181.5936 15.21057043295735
STARLINK-1464,45751,53.0524,0.0001408,15.06372924,546.3194424603134,548.2696439828851,1 45751U 20038X   25295.96234267 -.00000407  00000+0 -84092-5 0  9997,2 45751  53.0524 114.9000 0001408  87.5794 272.5356 15.06372924295725
STARLINK-1477,45754,53.0521,0.0001429,15.06403886,546.2100173265771,548.1892785405562,1 45754U 20038AA  25296.50783551  .00006449  00000+0  45139-3 0  9993,2 45754  53.0521 112.4490 0001429  86.3063 273.8089 15.06403886295808
STARLINK-1478,45755,53.0522,0.0001322,15.06402508,546.2883412269748,548.1194013533432,1 45755U 20038AB  25296.65895497  .00001588  00000+0  12549-3 0  9991,2 45755  53.0522 111.7723 0001322  96.0202 264.0938 15.06402508295812
STARLINK-1484,45756,53.0197,0.0001184,15.58997351,389.7562451470494,391.3590720422044,1 45756U 20038AC  25296.66671295  .00139564  00000+0  17372-2 0  9995,2 45756  53.0197  20.3942 0001184 285.6597 237.5625 15.58997351  5884
STARLINK-1493,45759,53.0521,0.0001358,15.06407706,546.2474811319371,548.1283993857123,1 45759U 20038AF  25296.51521029  .00003853  00000+0  27735-3 0  9997,2 45759  53.0521 112.4171 0001358  82.9240 277.1904 15.06407706295795
STARLINK-1494,45760,53.0535,8.63e-05,15.50657368,414.21934472667,415.39180661523005,1 45760U 20038AG  25296.67488132  .00041205  00000+0  71039-3 0  9992,2 45760  53.0535  99.2760 0000863  17.8928 342.2111 15.50657368296007
STARLINK-1502,45764,53.0524,0.0001247,15.06416527,546.2973208778803,548.0244901755177,1 45764U 20038AL  25296.68107507  .00003636  00000+0  26275-3 0  9999,2 45764  53.0524 111.6717 0001247  94.9054 265.2077 15.06416527295839
STARLINK-1470,45772,53.0488,0.0004177,15.17122539,511.66315504756676,517.4212992739367,1 45772U 20038AU  25296.65998544  .00015847  00000+0  80331-3 0  9994,2 45772  53.0488  84.8445 0004177 186.9093 173.1844 15.17122539296206
STARLINK-1482,45773,53.0526,0.0001454,15.0640806,546.1799132207107,548.1937973978347,1 45773U 20038AV  25296.64605610  .00004486  00000+0  31982-3 0  9998,2 45773  53.0526  91.8301 0001454  81.5570 278.5584 15.06408060296108
STARLINK-1485,45774,53.043,0.0006947,16.02620437,262.5485243998555,271.7815070204824,1 45774U 20038AW  25296.74792856  .00584750  16842-3  95882-3 0  9990,2 45774  53.0430  24.3692 0006947 354.1782   5.9166 16.02620437297057
STARLINK-1496,45780,53.0537,0.0001287,15.06409393,546.2914812413192,548.0740585500907,1 45780U 20038BC  25296.67923935  .00001390  00000+0  11215-3 0  9990,2 45780  53.0537  91.6811 0001287  89.8897 270.2240 15.06409393296095
STARLINK-1497,45781,53.0408,0.0005938,15.51769009,407.5292913274261,415.5927366888627,1 45781U 20038BD  25296.66671295  .00183546  00000+0  29599-2 0  9996,2 45781  53.0408  39.6996 0005938 230.4921 241.6843 15.51769009  5865
STARLINK-1510,45784,53.0347,0.0001246,15.66802027,367.22054763826964,368.9017002107512,1 45784U 20038BG  25296.66671295  .00233821  00000+0  21179-2 0  9997,2 45784  53.0347  16.7782 0001246 101.2258 175.8367 15.66802027  5958
STARLINK-1513,45786,53.0526,0.000163,15.06403692,546.0714125426039,548.3290724836634,1 45786U 20038BJ  25296.17794287  .00006270  00000+0  43942-3 0  9991,2 45786  53.0526  93.9322 0001630 105.6880 254.4289 15.06403692296039
STARLINK-1522,46027,53.0587,0.0001682,15.06415133,546.0003420347848,548.3300136874168,1 46027U 20055A   25296.62302131  .00002794  00000+0  20635-3 0  9993,2 46027  53.0587  21.9357 0001682 100.9627 259.1551 15.06415133288227
STARLINK-1523,46028,53.0566,0.000146,15.06387094,546.2400065873453,548.2622199164152,1 46028U 20055B   25296.63779044 -.00002726  00000+0 -16424-3 0  9994,2 46028  53.0566  21.8682 0001460 100.9065 259.2088 15.06387094288247
STARLINK-1526,46029,53.0564,0.0001321,15.06418522,546.2399602119567,548.0696223032073,1 46029U 20055C   25296.49769637  .00003071  00000+0  22485-3 0  9992,2 46029  53.0564  22.4948 0001321  92.5645 267.5495 15.06418522288216
STARLINK-1555,46032,53.055,0.0001425,15.06424941,546.1482671432177,548.1219696969674,1 46032U 20055F   25296.61565696  .00017341  00000+0  11794-2 0  9994,2 46032  53.0550  21.9673 0001425  81.7195 278.3956 15.06424941288235
STARLINK-1556,46033,53.0549,0.0001325,15.06399116,546.2966582293693,548.1318763151976,1 46033U 20055G   25296.53087957  .00000582  00000+0  57958-4 0  9998,2 46033  53.0549  22.3505 0001325  93.2983 266.8158 15.06399116288191
STARLINK-1557,46034,53.0561,0.0001427,15.06397447,546.2311341708428,548.2076308824162,1 46034U 20055H   25296.53455846  .00002647  00000+0  19653-3 0  9998,2 46034  53.0561  22.3307 0001427  87.9304 272.1848 15.06397447288197
